OBJECT_NAME,OBJECT_ID,EPOCH,MEAN_MOTION,ECCENTRICITY,INCLINATION,RA_OF_ASC_NODE,ARG_OF_PERICENTER,MEAN_ANOMALY,EPHEMERIS_TYPE,CLASSIFICATION_TYPE,NORAD_CAT_ID,ELEMENT_SET_NO,REV_AT_EPOCH,BSTAR,MEAN_MOTION_DOT,MEAN_MOTION_DDOT
SCD 1,1993-009B,2026-06-07T15:12:55.817568,14.46115834,.004209,24.9695,266.5641,37.1527,346.0340,0,U,22490,999,75973,.68391E-4,.436E-5,0
TECHSAT 1B (GO-32),1998-043D,2026-06-07T17:19:46.484256,14.24426625,.0000523,99.0065,151.2420,189.5631,170.5537,0,U,25397,999,44998,.53464E-4,.77E-6,0
SCD 2,1998-060A,2026-06-07T15:46:44.291712,14.45522289,.0016819,24.9937,130.9274,23.4031,137.7890,0,U,25504,999,45894,.71304E-4,.438E-5,0
DLR-TUBSAT,1999-029B,2026-06-07T17:13:27.836256,14.52424515,.0014643,98.6693,153.9101,23.5599,336.6263,0,U,25757,999,43187,.44212E-4,.132E-5,0
TERRA,1999-068A,2026-06-07T18:33:22.414176,14.61096106,.0000911,97.9460,208.6923,236.1841,189.1368,0,U,25994,999,40823,.10624E-3,.478E-5,0
MAROC-TUBSAT,2001-056D,2026-06-07T12:16:53.942016,13.70262006,.0020021,99.8079,335.1892,165.5901,264.7522,0,U,27004,999,22486,.27346E-4,-.22E-6,0
AQUA,2002-022A,2026-06-07T19:42:15.422976,14.62144478,.0001471,98.4272,127.9171,54.8759,34.0215,0,U,27424,999,28190,.19527E-3,.933E-5,0
SHIYAN-1 (SY-1),2004-012A,2026-06-07T17:21:03.872736,15.33519760,.0006393,97.8687,236.1784,63.1317,297.0577,0,U,28220,999,20964,.42584E-3,.13729E-3,0
AURA,2004-026A,2026-06-07T17:49:05.531232,14.61315713,.0001335,98.3413,115.1179,71.1541,288.9804,0,U,28376,999,16483,.21149E-3,.996E-5,0
IRS-P5 (CARTOSAT-1),2005-017A,2026-06-07T19:36:50.316192,14.91025688,.0002639,97.5311,182.3070,91.7693,268.3828,0,U,28649,999,14242,.17427E-3,.1671E-4,0
SINAH 1,2005-043D,2026-06-07T19:52:49.141056,14.64151675,.001335,98.2849,293.0960,308.8572,51.1438,0,U,28893,999,9915,.80723E-4,.375E-5,0
RESURS-DK 1,2006-021A,2026-06-07T20:19:31.340928,15.13176415,.0006429,69.9339,3.7309,299.4209,60.6315,0,U,29228,999,10116,.16131E-3,.2762E-4,0
ARIRANG-2 (KOMPSAT-2),2006-031A,2026-06-07T20:58:27.051744,14.64655081,.0015842,97.8311,343.7712,101.2968,5.8999,0,U,29268,999,6011,.10605E-3,.52E-5,0
LAPAN-TUBSAT,2007-001A,2026-06-07T21:27:50.361696,14.85943090,.0011176,98.1346,157.9094,210.6023,149.4540,0,U,29709,999,4977,.1335E-3,.1108E-4,0
HAIYANG-1B,2007-010A,2026-06-07T16:56:01.531392,14.31024602,.0012489,98.3490,140.9187,226.0264,133.9891,0,U,31113,999,99927,.61685E-4,.121E-5,0
COSMO-SKYMED 1,2007-023A,2026-06-07T20:16:05.574144,14.97059733,.0001198,97.8859,350.6228,80.1237,280.0120,0,U,31598,999,2839,.2291E-3,.258E-4,0
TERRASAR-X,2007-026A,2026-06-07T07:28:32.099232,15.19147499,.0001875,97.4442,166.1612,80.9133,279.2314,0,U,31698,999,5172,.51664E-4,.1018E-4,0
WORLDVIEW-1 (WV-1),2007-041A,2026-06-07T13:49:19.973568,15.24160510,.0003111,97.3863,278.4595,47.0387,313.1111,0,U,32060,999,4141,.27426E-3,.6605E-4,0
YAOGAN-3,2007-055A,2026-06-07T20:45:05.423040,14.90743142,.0001902,97.8161,188.8347,86.8607,273.2829,0,U,32289,999,448,.64181E-4,.575E-5,0
COSMO-SKYMED 2,2007-059A,2026-06-07T08:55:40.235808,14.82163879,.0001437,97.8885,342.1125,87.8499,272.2879,0,U,32376,999,55,.68378E-4,.492E-5,0
RADARSAT-2,2007-061A,2026-06-07T19:14:23.392896,14.29982311,.0001305,98.5781,165.8685,81.0352,279.0978,0,U,32382,999,96461,-.13005E-4,-.77E-6,0
CARTOSAT-2A,2008-021A,2026-06-07T20:19:35.566752,14.79226675,.0012665,97.7635,207.8743,136.2162,224.0056,0,U,32783,999,97742,.16899E-3,.1206E-4,0
HUANJING 1A (HJ-1A),2008-041A,2026-06-07T20:40:11.568000,14.83967293,.0019129,97.6685,145.0607,164.1665,196.0152,0,U,33320,999,95702,.21364E-3,.1731E-4,0
HUANJING 1B (HJ-1B),2008-041B,2026-06-07T21:26:43.890720,14.83301191,.0035167,97.6522,148.2918,212.0861,147.8214,0,U,33321,999,95703,.93533E-4,.721E-5,0
GEOEYE 1,2008-042A,2026-06-07T19:01:56.027712,14.64717410,.0005581,98.1236,232.8431,91.9233,268.2609,0,U,33331,999,94877,.11224E-3,.55E-5,0
THEOS,2008-049A,2026-06-07T21:07:17.075136,14.20130795,.0001306,98.5569,216.4658,79.2936,280.8388,0,U,33396,999,91664,-.68342E-4,-.188E-5,0
COSMO-SKYMED 3,2008-054A,2026-06-07T20:19:31.463616,15.06892166,.0014258,97.8292,17.2627,302.0625,57.9217,0,U,33412,999,95553,.12433E-3,.1793E-4,0
YAOGAN-4,2008-061A,2026-06-07T17:20:00.762720,14.83183330,.0015721,97.9306,92.3026,100.3566,259.9421,0,U,33446,999,94426,.15977E-3,.1253E-4,0
GOSAT (IBUKI),2009-002A,2026-06-07T17:30:04.708224,14.67539700,.0001531,98.0882,269.9294,89.5512,270.5868,0,U,33492,999,93007,.21792E-4,.75E-6,0
DEIMOS-1,2009-041A,2026-06-07T21:27:25.341984,14.75229712,.000101,97.7399,316.5255,137.4475,222.6813,0,U,35681,999,90551,.14725E-3,.948E-5,0
DUBAISAT-1,2009-041B,2026-06-07T07:42:33.278400,14.75109023,.0011733,98.0040,291.6881,101.6441,258.6085,0,U,35682,999,90364,.15582E-3,.1001E-4,0
