SCD 1                   
1 22490U 93009B   26158.63397937  .00000436  00000+0  68391-4 0  9990
2 22490  24.9695 266.5641 0042090  37.1527 346.0340 14.46115834759732
TECHSAT 1B (GO-32)      
1 25397U 98043D   26158.72206579  .00000077  00000+0  53464-4 0  9999
2 25397  99.0065 151.2420 0000523 189.5631 170.5537 14.24426625449983
SCD 2                   
1 25504U 98060A   26158.65745708  .00000438  00000+0  71304-4 0  9996
2 25504  24.9937 130.9274 0016819  23.4031 137.7890 14.45522289458943
DLR-TUBSAT              
1 25757U 99029B   26158.71768329  .00000132  00000+0  44212-4 0  9992
2 25757  98.6693 153.9101 0014643  23.5599 336.6263 14.52424515431875
TERRA                   
1 25994U 99068A   26158.77317609  .00000478  00000+0  10624-3 0  9997
2 25994  97.9460 208.6923 0000911 236.1841 189.1368 14.61096106408239
MAROC-TUBSAT            
1 27004U 01056D   26158.51173544 -.00000022  00000+0  27346-4 0  9997
2 27004  99.8079 335.1892 0020021 165.5901 264.7522 13.70262006224867
AQUA                    
1 27424U 02022A   26158.82101184  .00000933  00000+0  19527-3 0  9993
2 27424  98.4272 127.9171 0001471  54.8759  34.0215 14.62144478281908
SHIYAN-1 (SY-1)         
1 28220U 04012A   26158.72296149  .00013729  00000+0  42584-3 0  9990
2 28220  97.8687 236.1784 0006393  63.1317 297.0577 15.33519760209642
AURA                    
1 28376U 04026A   26158.74242513  .00000996  00000+0  21149-3 0  9991
2 28376  98.3413 115.1179 0001335  71.1541 288.9804 14.61315713164835
IRS-P5 (CARTOSAT-1)     
1 28649U 05017A   26158.81724903  .00001671  00000+0  17427-3 0  9996
2 28649  97.5311 182.3070 0002639  91.7693 268.3828 14.91025688142427
SINAH 1                 
1 28893U 05043D   26158.82834654  .00000375  00000+0  80723-4 0  9992
2 28893  98.2849 293.0960 0013350 308.8572  51.1438 14.64151675 99152
RESURS-DK 1             
1 29228U 06021A   26158.84689052  .00002762  00000+0  16131-3 0  9997
2 29228  69.9339   3.7309 0006429 299.4209  60.6315 15.13176415101166
ARIRANG-2 (KOMPSAT-2)   
1 29268U 06031A   26158.87392421  .00000520  00000+0  10605-3 0  9996
2 29268  97.8311 343.7712 0015842 101.2968   5.8999 14.64655081 60110
LAPAN-TUBSAT            
1 29709U 07001A   26158.89433289  .00001108  00000+0  13350-3 0  9997
2 29709  98.1346 157.9094 0011176 210.6023 149.4540 14.85943090 49772
HAIYANG-1B              
1 31113U 07010A   26158.70557328  .00000121  00000+0  61685-4 0  9999
2 31113  98.3490 140.9187 0012489 226.0264 133.9891 14.31024602999273
COSMO-SKYMED 1          
1 31598U 07023A   26158.84450896  .00002580  00000+0  22910-3 0  9995
2 31598  97.8859 350.6228 0001198  80.1237 280.0120 14.97059733 28393
TERRASAR-X              
1 31698U 07026A   26158.31148263  .00001018  00000+0  51664-4 0  9997
2 31698  97.4442 166.1612 0001875  80.9133 279.2314 15.19147499 51720
WORLDVIEW-1 (WV-1)      
1 32060U 07041A   26158.57592562  .00006605  00000+0  27426-3 0  9996
2 32060  97.3863 278.4595 0003111  47.0387 313.1111 15.24160510 41410
YAOGAN-3                
1 32289U 07055A   26158.86464610  .00000575  00000+0  64181-4 0  9998
2 32289  97.8161 188.8347 0001902  86.8607 273.2829 14.90743142  4488
COSMO-SKYMED 2          
1 32376U 07059A   26158.37199347  .00000492  00000+0  68378-4 0  9997
2 32376  97.8885 342.1125 0001437  87.8499 272.2879 14.82163879   552
RADARSAT-2              
1 32382U 07061A   26158.80165964 -.00000077  00000+0 -13005-4 0  9991
2 32382  98.5781 165.8685 0001305  81.0352 279.0978 14.29982311964613
CARTOSAT-2A             
1 32783U 08021A   26158.84693943  .00001206  00000+0  16899-3 0  9996
2 32783  97.7635 207.8743 0012665 136.2162 224.0056 14.79226675977421
HUANJING 1A (HJ-1A)     
1 33320U 08041A   26158.86124500  .00001731  00000+0  21364-3 0  9992
2 33320  97.6685 145.0607 0019129 164.1665 196.0152 14.83967293957027
HUANJING 1B (HJ-1B)     
1 33321U 08041B   26158.89356355  .00000721  00000+0  93533-4 0  9997
2 33321  97.6522 148.2918 0035167 212.0861 147.8214 14.83301191957032
GEOEYE 1                
1 33331U 08042A   26158.79300958  .00000550  00000+0  11224-3 0  9992
2 33331  98.1236 232.8431 0005581  91.9233 268.2609 14.64717410948776
THEOS                   
1 33396U 08049A   26158.88005874 -.00000188  00000+0 -68342-4 0  9992
2 33396  98.5569 216.4658 0001306  79.2936 280.8388 14.20130795916641
COSMO-SKYMED 3          
1 33412U 08054A   26158.84689194  .00001793  00000+0  12433-3 0  9996
2 33412  97.8292  17.2627 0014258 302.0625  57.9217 15.06892166955537
YAOGAN-4                
1 33446U 08061A   26158.72223105  .00001253  00000+0  15977-3 0  9991
2 33446  97.9306  92.3026 0015721 100.3566 259.9421 14.83183330944266
GOSAT (IBUKI)           
1 33492U 09002A   26158.72922116  .00000075  00000+0  21792-4 0  9990
2 33492  98.0882 269.9294 0001531  89.5512 270.5868 14.67539700930076
DEIMOS-1                
1 35681U 09041A   26158.89404331  .00000948  00000+0  14725-3 0  9993
2 35681  97.7399 316.5255 0001010 137.4475 222.6813 14.75229712905513
DUBAISAT-1              
1 35682U 09041B   26158.32121850  .00001001  00000+0  15582-3 0  9997
2 35682  98.0040 291.6881 0011733 101.6441 258.6085 14.75109023903642
